[{"OBJECT_NAME":"STARLINK-34836","OBJECT_ID":"2025-191W","EPOCH":"2026-03-09T15:37:19.177824","MEAN_MOTION":15.05645449,"ECCENTRICITY":0.0002985,"INCLINATION":97.6027,"RA_OF_ASC_NODE":301.4895,"ARG_OF_PERICENTER":66.6441,"MEAN_ANOMALY":293.5099,"EPHEMERIS_TYPE":0,"CLASSIFICATION_TYPE":"U","NORAD_CAT_ID":65399,"ELEMENT_SET_NO":999,"REV_AT_EPOCH":3026,"BSTAR":0.00093942,"MEAN_MOTION_DOT":0.00013519,"MEAN_MOTION_DDOT":0},{"OBJECT_NAME":"SL-18 R\/B","OBJECT_ID":"2001-007B","EPOCH":"2026-03-09T23:25:11.323200","MEAN_MOTION":15.07301441,"ECCENTRICITY":0.00085554,"INCLINATION":97.6926,"RA_OF_ASC_NODE":87.6817,"ARG_OF_PERICENTER":353.225,"MEAN_ANOMALY":6.886,"EPHEMERIS_TYPE":0,"CLASSIFICATION_TYPE":"U","NORAD_CAT_ID":26703,"ELEMENT_SET_NO":999,"REV_AT_EPOCH":64619,"BSTAR":0.00021543689,"MEAN_MOTION_DOT":3.19e-5,"MEAN_MOTION_DDOT":0}]
